{"type": "FeatureCollection", "features": [ {"type": "Feature", "properties": {"norad_id": 66989, "name": "CZ-4B R/B", "group": "last-30-days", "lat": -13.14501000031889, "lon": 65.52953840007791, "alt_km": 277.86368519485404, "timestamp": "2025-12-23T14:49:07.968718+00:00", "meta": {"OBJECT_NAME": "CZ-4B R/B", "OBJECT_ID": "2025-289B", "EPOCH": "2025-12-23T04:09:52.892640", "MEAN_MOTION": 15.69708825, "ECCENTRICITY": 0.0141231, "INCLINATION": 97.524, "RA_OF_ASC_NODE": 63.2833, "ARG_OF_PERICENTER": 323.3908, "MEAN_ANOMALY": 35.7763, "EPHEMERIS_TYPE": 0, "CLASSIFICATION_TYPE": "U", "NORAD_CAT_ID": 66989, "ELEMENT_SET_NO": 999, "REV_AT_EPOCH": 220, "BSTAR": 0.00060192413, "MEAN_MOTION_DOT": 0.00127908, "MEAN_MOTION_DDOT": 6.995542e-06}, "tle": {"line1": "1 66989U 25289B   25357.17352885  .00127908  69955-5  60192-3 0  9992", "line2": "2 66989  97.5240  63.2833 0141231 323.3908  35.7763 15.69708825  2208"}}, "geometry": {"type": "Point", "coordinates": [65.52953840007791, -13.14501000031889]}}, {"type": "Feature", "properties": {"norad_id": 66990, "name": "TJS-22", "group": "last-30-days", "lat": 1.956432573971203, "lon": 21.167940685958484, "alt_km": 35791.729418812676, "timestamp": "2025-12-23T14:49:07.968737+00:00", "meta": {"OBJECT_NAME": "TJS-22", "OBJECT_ID": "2025-290A", "EPOCH": "2025-12-22T08:32:32.116992", "MEAN_MOTION": 1.00271075, "ECCENTRICITY": 0.00034334, "INCLINATION": 1.9643, "RA_OF_ASC_NODE": 285.0317, "ARG_OF_PERICENTER": 342.7028, "MEAN_ANOMALY": 18.0138, "EPHEMERIS_TYPE": 0, "CLASSIFICATION_TYPE": "U", "NORAD_CAT_ID": 66990, "ELEMENT_SET_NO": 999, "REV_AT_EPOCH": 25, "BSTAR": 0, "MEAN_MOTION_DOT": 1.7e-07, "MEAN_MOTION_DDOT": 0}, "tle": {"line1": "1 66990U 25290A   25356.35592728  .00000017  00000+0  00000+0 0  9996", "line2": "2 66990   1.9643 285.0317 0003433 342.7028  18.0138  1.00271075   251"}}, "geometry": {"type": "Point", "coordinates": [21.167940685958484, 1.956432573971203]}}, {"type": "Feature", "properties": {"norad_id": 66991, "name": "CZ-3B R/B", "group": "last-30-days", "lat": -3.9699681316742046, "lon": -70.00705300065981, "alt_km": 30553.961145839883, "timestamp": "2025-12-23T14:49:07.968757+00:00", "meta": {"OBJECT_NAME": "CZ-3B R/B", "OBJECT_ID": "2025-290B", "EPOCH": "2025-12-15T17:23:33.043200", "MEAN_MOTION": 2.38388611, "ECCENTRICITY": 0.7240884, "INCLINATION": 28.4636, "RA_OF_ASC_NODE": 300.4666, "ARG_OF_PERICENTER": 182.7002, "MEAN_ANOMALY": 168.625, "EPHEMERIS_TYPE": 0, "CLASSIFICATION_TYPE": "U", "NORAD_CAT_ID": 66991, "ELEMENT_SET_NO": 999, "REV_AT_EPOCH": 16, "BSTAR": 0.00075879, "MEAN_MOTION_DOT": 0.00057911, "MEAN_MOTION_DDOT": -2.0514e-07}, "tle": {"line1": "1 66991U 25290B   25349.72468800  .00057911 -20514-6  75879-3 0  9998", "line2": "2 66991  28.4636 300.4666 7240884 182.7002 168.6250  2.38388611   165"}}, "geometry": {"type": "Point", "coordinates": [-70.00705300065981, -3.9699681316742046]}}, {"type": "Feature", "properties": {"norad_id": 66993, "name": "2025-292A", "group": "last-30-days", "lat": -16.462936738563254, "lon": -112.21375728838419, "alt_km": 549.7261210074375, "timestamp": "2025-12-23T14:49:07.968778+00:00", "meta": {"OBJECT_NAME": "2025-292A", "OBJECT_ID": "2025-292A", "EPOCH": "2025-12-23T05:57:59.402016", "MEAN_MOTION": 15.04568246, "ECCENTRICITY": 0.00143493, "INCLINATION": 97.6506, "RA_OF_ASC_NODE": 69.6976, "ARG_OF_PERICENTER": 234.0226, "MEAN_ANOMALY": 125.967, "EPHEMERIS_TYPE": 0, "CLASSIFICATION_TYPE": "U", "NORAD_CAT_ID": 66993, "ELEMENT_SET_NO": 999, "REV_AT_EPOCH": 197, "BSTAR": 0.00028815809, "MEAN_MOTION_DOT": 3.989e-05, "MEAN_MOTION_DDOT": 0}, "tle": {"line1": "1 66993U 25292A   25357.24860419  .00003989  00000+0  28816-3 0  9995", "line2": "2 66993  97.6506  69.6976 0014349 234.0226 125.9670 15.04568246  1979"}}, "geometry": {"type": "Point", "coordinates": [-112.21375728838419, -16.462936738563254]}}, {"type": "Feature", "properties": {"norad_id": 66994, "name": "2025-292B", "group": "last-30-days", "lat": -18.589941576561785, "lon": -112.5265745093244, "alt_km": 549.7183418054728, "timestamp": "2025-12-23T14:49:07.968795+00:00", "meta": {"OBJECT_NAME": "2025-292B", "OBJECT_ID": "2025-292B", "EPOCH": "2025-12-23T05:57:26.208000", "MEAN_MOTION": 15.04614694, "ECCENTRICITY": 0.0014126, "INCLINATION": 97.6515, "RA_OF_ASC_NODE": 69.6994, "ARG_OF_PERICENTER": 234.2888, "MEAN_ANOMALY": 125.7024, "EPHEMERIS_TYPE": 0, "CLASSIFICATION_TYPE": "U", "NORAD_CAT_ID": 66994, "ELEMENT_SET_NO": 999, "REV_AT_EPOCH": 197, "BSTAR": 0.00033697968, "MEAN_MOTION_DOT": 4.681e-05, "MEAN_MOTION_DDOT": 0}, "tle": {"line1": "1 66994U 25292B   25357.24822000  .00004681  00000+0  33698-3 0  9994", "line2": "2 66994  97.6515  69.6994 0014126 234.2888 125.7024 15.04614694  1979"}}, "geometry": {"type": "Point", "coordinates": [-112.5265745093244, -18.589941576561785]}}, {"type": "Feature", "properties": {"norad_id": 66995, "name": "2025-292C", "group": "last-30-days", "lat": -19.38908506724258, "lon": -112.64759206189768, "alt_km": 549.4685652752687, "timestamp": "2025-12-23T14:49:07.968812+00:00", "meta": {"OBJECT_NAME": "2025-292C", "OBJECT_ID": "2025-292C", "EPOCH": "2025-12-23T05:57:13.889088", "MEAN_MOTION": 15.04644719, "ECCENTRICITY": 0.00144479, "INCLINATION": 97.6505, "RA_OF_ASC_NODE": 69.6982, "ARG_OF_PERICENTER": 234.6536, "MEAN_ANOMALY": 125.3341, "EPHEMERIS_TYPE": 0, "CLASSIFICATION_TYPE": "U", "NORAD_CAT_ID": 66995, "ELEMENT_SET_NO": 999, "REV_AT_EPOCH": 197, "BSTAR": 0.00039890001, "MEAN_MOTION_DOT": 5.558e-05, "MEAN_MOTION_DDOT": 0}, "tle": {"line1": "1 66995U 25292C   25357.24807742  .00005558  00000+0  39890-3 0  9995", "line2": "2 66995  97.6505  69.6982 0014447 234.6536 125.3341 15.04644719  1975"}}, "geometry": {"type": "Point", "coordinates": [-112.64759206189768, -19.38908506724258]}}, {"type": "Feature", "properties": {"norad_id": 66996, "name": "2025-292D", "group": "last-30-days", "lat": -21.255126286373265, "lon": -112.93309210913759, "alt_km": 550.1503692958167, "timestamp": "2025-12-23T14:49:07.968832+00:00", "meta": {"OBJECT_NAME": "2025-292D", "OBJECT_ID": "2025-292D", "EPOCH": "2025-12-23T05:56:44.284992", "MEAN_MOTION": 15.04662731, "ECCENTRICITY": 0.00135639, "INCLINATION": 97.65, "RA_OF_ASC_NODE": 69.6978, "ARG_OF_PERICENTER": 237.2188, "MEAN_ANOMALY": 122.7732, "EPHEMERIS_TYPE": 0, "CLASSIFICATION_TYPE": "U", "NORAD_CAT_ID": 66996, "ELEMENT_SET_NO": 999, "REV_AT_EPOCH": 197, "BSTAR": 0.00026116971, "MEAN_MOTION_DOT": 3.617e-05, "MEAN_MOTION_DDOT": 0}, "tle": {"line1": "1 66996U 25292D   25357.24773478  .00003617  00000+0  26117-3 0  9996", "line2": "2 66996  97.6500  69.6978 0013563 237.2188 122.7732 15.04662731  1975"}}, "geometry": {"type": "Point", "coordinates": [-112.93309210913759, -21.255126286373265]}}, {"type": "Feature", "properties": {"norad_id": 66997, "name": "2025-292E", "group": "last-30-days", "lat": -25.20976177586489, "lon": -113.55999607141885, "alt_km": 549.6908470694152, "timestamp": "2025-12-23T14:49:07.968855+00:00", "meta": {"OBJECT_NAME": "2025-292E", "OBJECT_ID": "2025-292E", "EPOCH": "2025-12-23T07:31:27.737472", "MEAN_MOTION": 15.04751827, "ECCENTRICITY": 0.00139597, "INCLINATION": 97.652, "RA_OF_ASC_NODE": 69.7678, "ARG_OF_PERICENTER": 237.9883, "MEAN_ANOMALY": 121.9988, "EPHEMERIS_TYPE": 0, "CLASSIFICATION_TYPE": "U", "NORAD_CAT_ID": 66997, "ELEMENT_SET_NO": 999, "REV_AT_EPOCH": 197, "BSTAR": 0.00029016744, "MEAN_MOTION_DOT": 4.036e-05, "MEAN_MOTION_DDOT": 0}, "tle": {"line1": "1 66997U 25292E   25357.31351548  .00004036  00000+0  29017-3 0  9993", "line2": "2 66997  97.6520  69.7678 0013959 237.9883 121.9988 15.04751827  1973"}}, "geometry": {"type": "Point", "coordinates": [-113.55999607141885, -25.20976177586489]}}, {"type": "Feature", "properties": {"norad_id": 66998, "name": "2025-292F", "group": "last-30-days", "lat": -32.92360617321295, "lon": -114.92010467242417, "alt_km": 548.4125210968405, "timestamp": "2025-12-23T14:49:07.968877+00:00", "meta": {"OBJECT_NAME": "2025-292F", "OBJECT_ID": "2025-292F", "EPOCH": "2025-12-23T05:53:41.386560", "MEAN_MOTION": 15.0492762, "ECCENTRICITY": 0.00150886, "INCLINATION": 97.6538, "RA_OF_ASC_NODE": 69.7068, "ARG_OF_PERICENTER": 239.2225, "MEAN_ANOMALY": 120.7516, "EPHEMERIS_TYPE": 0, "CLASSIFICATION_TYPE": "U", "NORAD_CAT_ID": 66998, "ELEMENT_SET_NO": 999, "REV_AT_EPOCH": 197, "BSTAR": 0.00039669937, "MEAN_MOTION_DOT": 5.57e-05, "MEAN_MOTION_DDOT": 0}, "tle": {"line1": "1 66998U 25292F   25357.24561790  .00005570  00000+0  39670-3 0  9998", "line2": "2 66998  97.6538  69.7068 0015088 239.2225 120.7516 15.04927620  1976"}}, "geometry": {"type": "Point", "coordinates": [-114.92010467242417, -32.92360617321295]}}, {"type": "Feature", "properties": {"norad_id": 66999, "name": "2025-292G", "group": "last-30-days", "lat": -35.953083264024336, "lon": -115.52000058713965, "alt_km": 548.6089628463696, "timestamp": "2025-12-23T14:49:07.968890+00:00", "meta": {"OBJECT_NAME": "2025-292G", "OBJECT_ID": "2025-292G", "EPOCH": "2025-12-23T05:52:53.812992", "MEAN_MOTION": 15.04991311, "ECCENTRICITY": 0.00146138, "INCLINATION": 97.6547, "RA_OF_ASC_NODE": 69.7088, "ARG_OF_PERICENTER": 241.2304, "MEAN_ANOMALY": 118.7455, "EPHEMERIS_TYPE": 0, "CLASSIFICATION_TYPE": "U", "NORAD_CAT_ID": 66999, "ELEMENT_SET_NO": 999, "REV_AT_EPOCH": 197, "BSTAR": 0.00039326486, "MEAN_MOTION_DOT": 5.53e-05, "MEAN_MOTION_DDOT": 0}, "tle": {"line1": "1 66999U 25292G   25357.24506728  .00005530  00000+0  39326-3 0  9993", "line2": "2 66999  97.6547  69.7088 0014613 241.2304 118.7455 15.04991311  1970"}}, "geometry": {"type": "Point", "coordinates": [-115.52000058713965, -35.953083264024336]}}]}